{
  "type": "FeatureCollection",
  "features": [
    {
      "type": "Feature",
      "properties": {
        "norad_id": 31464,
        "name": "FENGYUN 1C DEB",
        "group": "fengyun-1c-debris",
        "lat": -54.01749461853582,
        "lon": 44.034702473109604,
        "alt_km": 841.0370641488389,
        "timestamp": "2025-12-10T21:43:22.370481+00:00",
        "meta_object_name": "FENGYUN 1C DEB",
        "meta_object_id": "1999-025BVC",
        "meta_epoch": "2025-12-08T09:04:42.155616",
        "meta_mean_motion": 14.12469302,
        "meta_eccentricity": 0.00430438,
        "meta_inclination": 98.7953,
        "meta_ra_of_asc_node": 29.243,
        "meta_arg_of_pericenter": 254.8356,
        "meta_mean_anomaly": 168.2264,
        "meta_ephemeris_type": 0,
        "meta_classification_type": "U",
        "meta_norad_cat_id": 31464,
        "meta_element_set_no": 999,
        "meta_rev_at_epoch": 94618,
        "meta_bstar": 0.00054133303,
        "meta_mean_motion_dot": 9.64e-06,
        "meta_mean_motion_ddot": 0,
        "tle_line1": "1 31464U 99025BVC 25342.37826569  .00000964  00000+0  54133-3 0  9992",
        "tle_line2": "2 31464  98.7953  29.2430 0043043 254.8356 168.2264 14.12469302946187"
      },
      "geometry": {
        "type": "Point",
        "coordinates": [
          44.034702473109604,
          -54.01749461853582
        ]
      }
    },
    {
      "type": "Feature",
      "properties": {
        "norad_id": 31466,
        "name": "FENGYUN 1C DEB",
        "group": "fengyun-1c-debris",
        "lat": 23.151120108453867,
        "lon": 98.73322839217353,
        "alt_km": 1028.4947155322861,
        "timestamp": "2025-12-10T21:43:22.370491+00:00",
        "meta_object_name": "FENGYUN 1C DEB",
        "meta_object_id": "1999-025BVE",
        "meta_epoch": "2025-12-10T12:30:21.904704",
        "meta_mean_motion": 14.18513848,
        "meta_eccentricity": 0.02992828,
        "meta_inclination": 99.0869,
        "meta_ra_of_asc_node": 274.4154,
        "meta_arg_of_pericenter": 315.1906,
        "meta_mean_anomaly": 42.5446,
        "meta_ephemeris_type": 0,
        "meta_classification_type": "U",
        "meta_norad_cat_id": 31466,
        "meta_element_set_no": 999,
        "meta_rev_at_epoch": 96297,
        "meta_bstar": 0.00040871551,
        "meta_mean_motion_dot": 1.262e-05,
        "meta_mean_motion_ddot": 0,
        "tle_line1": "1 31466U 99025BVE 25344.52108686  .00001262  00000+0  40872-3 0  9993",
        "tle_line2": "2 31466  99.0869 274.4154 0299282 315.1906  42.5446 14.18513848962978"
      },
      "geometry": {
        "type": "Point",
        "coordinates": [
          98.73322839217353,
          23.151120108453867
        ]
      }
    },
    {
      "type": "Feature",
      "properties": {
        "norad_id": 31468,
        "name": "FENGYUN 1C DEB",
        "group": "fengyun-1c-debris",
        "lat": 51.55976362513687,
        "lon": -29.351835162328232,
        "alt_km": 790.2446294066294,
        "timestamp": "2025-12-10T21:43:22.370501+00:00",
        "meta_object_name": "FENGYUN 1C DEB",
        "meta_object_id": "1999-025BVG",
        "meta_epoch": "2025-12-07T05:29:24.890784",
        "meta_mean_motion": 14.46565121,
        "meta_eccentricity": 0.01663478,
        "meta_inclination": 98.1709,
        "meta_ra_of_asc_node": 337.5297,
        "meta_arg_of_pericenter": 183.8861,
        "meta_mean_anomaly": 176.1053,
        "meta_ephemeris_type": 0,
        "meta_classification_type": "U",
        "meta_norad_cat_id": 31468,
        "meta_element_set_no": 999,
        "meta_rev_at_epoch": 67292,
        "meta_bstar": 0.00064627519,
        "meta_mean_motion_dot": 2.719e-05,
        "meta_mean_motion_ddot": 0,
        "tle_line1": "1 31468U 99025BVG 25341.22876031  .00002719  00000+0  64628-3 0  9998",
        "tle_line2": "2 31468  98.1709 337.5297 0166347 183.8861 176.1053 14.46565121672920"
      },
      "geometry": {
        "type": "Point",
        "coordinates": [
          -29.351835162328232,
          51.55976362513687
        ]
      }
    },
    {
      "type": "Feature",
      "properties": {
        "norad_id": 31473,
        "name": "FENGYUN 1C DEB",
        "group": "fengyun-1c-debris",
        "lat": -46.519562067334256,
        "lon": 27.123693850145575,
        "alt_km": 781.1851003875245,
        "timestamp": "2025-12-10T21:43:22.370511+00:00",
        "meta_object_name": "FENGYUN 1C DEB",
        "meta_object_id": "1999-025BVM",
        "meta_epoch": "2025-12-08T08:05:06.154656",
        "meta_mean_motion": 14.29738974,
        "meta_eccentricity": 0.0065146,
        "meta_inclination": 98.5454,
        "meta_ra_of_asc_node": 15.4808,
        "meta_arg_of_pericenter": 28.0119,
        "meta_mean_anomaly": 34.0859,
        "meta_ephemeris_type": 0,
        "meta_classification_type": "U",
        "meta_norad_cat_id": 31473,
        "meta_element_set_no": 999,
        "meta_rev_at_epoch": 69458,
        "meta_bstar": 0.0020016639,
        "meta_mean_motion_dot": 5.217e-05,
        "meta_mean_motion_ddot": 0,
        "tle_line1": "1 31473U 99025BVM 25342.33687679  .00005217  00000+0  20017-2 0  9994",
        "tle_line2": "2 31473  98.5454  15.4808 0065146  28.0119  34.0859 14.29738974694589"
      },
      "geometry": {
        "type": "Point",
        "coordinates": [
          27.123693850145575,
          -46.519562067334256
        ]
      }
    },
    {
      "type": "Feature",
      "properties": {
        "norad_id": 31474,
        "name": "FENGYUN 1C DEB",
        "group": "fengyun-1c-debris",
        "lat": 4.514555735813488,
        "lon": 30.002587999810466,
        "alt_km": 906.099765015867,
        "timestamp": "2025-12-10T21:43:22.370522+00:00",
        "meta_object_name": "FENGYUN 1C DEB",
        "meta_object_id": "1999-025BVN",
        "meta_epoch": "2025-12-08T20:19:54.263712",
        "meta_mean_motion": 14.10564237,
        "meta_eccentricity": 0.0071754,
        "meta_inclination": 99.1441,
        "meta_ra_of_asc_node": 28.6385,
        "meta_arg_of_pericenter": 216.8616,
        "meta_mean_anomaly": 142.761,
        "meta_ephemeris_type": 0,
        "meta_classification_type": "U",
        "meta_norad_cat_id": 31474,
        "meta_element_set_no": 999,
        "meta_rev_at_epoch": 94915,
        "meta_bstar": 0.0018688,
        "meta_mean_motion_dot": 3.367e-05,
        "meta_mean_motion_ddot": 0,
        "tle_line1": "1 31474U 99025BVN 25342.84715583  .00003367  00000+0  18688-2 0  9992",
        "tle_line2": "2 31474  99.1441  28.6385 0071754 216.8616 142.7610 14.10564237949157"
      },
      "geometry": {
        "type": "Point",
        "coordinates": [
          30.002587999810466,
          4.514555735813488
        ]
      }
    },
    {
      "type": "Feature",
      "properties": {
        "norad_id": 31475,
        "name": "FENGYUN 1C DEB",
        "group": "fengyun-1c-debris",
        "lat": 40.76722336104351,
        "lon": 61.32245339989933,
        "alt_km": 624.8617444672,
        "timestamp": "2025-12-10T21:43:22.370532+00:00",
        "meta_object_name": "FENGYUN 1C DEB",
        "meta_object_id": "1999-025BVP",
        "meta_epoch": "2025-12-07T22:58:00.354720",
        "meta_mean_motion": 14.38167785,
        "meta_eccentricity": 0.02115749,
        "meta_inclination": 98.9393,
        "meta_ra_of_asc_node": 230.4536,
        "meta_arg_of_pericenter": 121.171,
        "meta_mean_anomaly": 241.041,
        "meta_ephemeris_type": 0,
        "meta_classification_type": "U",
        "meta_norad_cat_id": 31475,
        "meta_element_set_no": 999,
        "meta_rev_at_epoch": 96010,
        "meta_bstar": 0.00078560973,
        "meta_mean_motion_dot": 3.04e-05,
        "meta_mean_motion_ddot": 0,
        "tle_line1": "1 31475U 99025BVP 25341.95694855  .00003040  00000+0  78561-3 0  9997",
        "tle_line2": "2 31475  98.9393 230.4536 0211574 121.1710 241.0410 14.38167785960107"
      },
      "geometry": {
        "type": "Point",
        "coordinates": [
          61.32245339989933,
          40.76722336104351
        ]
      }
    },
    {
      "type": "Feature",
      "properties": {
        "norad_id": 31476,
        "name": "FENGYUN 1C DEB",
        "group": "fengyun-1c-debris",
        "lat": 38.03951331375642,
        "lon": 51.34854431717409,
        "alt_km": 843.8478117041477,
        "timestamp": "2025-12-10T21:43:22.370542+00:00",
        "meta_object_name": "FENGYUN 1C DEB",
        "meta_object_id": "1999-025BVQ",
        "meta_epoch": "2025-12-10T04:39:14.318208",
        "meta_mean_motion": 14.22073419,
        "meta_eccentricity": 0.0053112,
        "meta_inclination": 98.8964,
        "meta_ra_of_asc_node": 57.6705,
        "meta_arg_of_pericenter": 178.8623,
        "meta_mean_anomaly": 181.2684,
        "meta_ephemeris_type": 0,
        "meta_classification_type": "U",
        "meta_norad_cat_id": 31476,
        "meta_element_set_no": 999,
        "meta_rev_at_epoch": 95663,
        "meta_bstar": 0.0024088,
        "meta_mean_motion_dot": 5.365e-05,
        "meta_mean_motion_ddot": 0,
        "tle_line1": "1 31476U 99025BVQ 25344.19391572  .00005365  00000+0  24088-2 0  9993",
        "tle_line2": "2 31476  98.8964  57.6705 0053112 178.8623 181.2684 14.22073419956636"
      },
      "geometry": {
        "type": "Point",
        "coordinates": [
          51.34854431717409,
          38.03951331375642
        ]
      }
    }
  ]
}